{
  "norad_id": 59794,
  "name": "STARLINK-31823",
  "history": [
    {
      "epoch": "2026-03-28T10:34:17.066784",
      "apogee_km": 483.8776264039261,
      "perigee_km": 482.1884063458947,
      "latitude_deg": 35.173941962746746,
      "longitude_deg": -158.31437024008483,
      "semi_major_axis_km": 6861.17001637491,
      "eccentricity": 0.0001231,
      "inclination_deg": 43.0022,
      "raan_deg": 102.9516,
      "arg_perigee_deg": 236.2208,
      "mean_anomaly_deg": 123.8527,
      "mean_motion_rev_day": 15.2758537
    }
  ]
}